{"type": "FeatureCollection", "features": [ {"type": "Feature", "properties": {"norad_id": 66975, "name": "STARLINK-35777", "group": "last-30-days", "lat": 12.450017604843591, "lon": -69.26550719115379, "alt_km": 321.35029206068157, "timestamp": "2025-12-19T16:54:42.970116+00:00", "meta": {"OBJECT_NAME": "STARLINK-35777", "OBJECT_ID": "2025-288S", "EPOCH": "2025-12-19T00:00:02.000160", "MEAN_MOTION": 15.85015656, "ECCENTRICITY": 0.00016581, "INCLINATION": 43.0019, "RA_OF_ASC_NODE": 128.771, "ARG_OF_PERICENTER": 280.9395, "MEAN_ANOMALY": 177.747, "EPHEMERIS_TYPE": 0, "CLASSIFICATION_TYPE": "U", "NORAD_CAT_ID": 66975, "ELEMENT_SET_NO": 999, "REV_AT_EPOCH": 283, "BSTAR": -0.0068228761, "MEAN_MOTION_DOT": -0.01468652, "MEAN_MOTION_DDOT": 0}, "tle": {"line1": "1 66975U 25288S   25353.00002315 -.01468652  00000+0 -68229-2 0  9999", "line2": "2 66975  43.0019 128.7710 0001658 280.9395 177.7470 15.85015656  2832"}}, "geometry": {"type": "Point", "coordinates": [-69.26550719115379, 12.450017604843591]}}, {"type": "Feature", "properties": {"norad_id": 66976, "name": "STARLINK-35772", "group": "last-30-days", "lat": 32.51852328276547, "lon": 167.87678466116614, "alt_km": 343.2054655308584, "timestamp": "2025-12-19T16:54:42.970127+00:00", "meta": {"OBJECT_NAME": "STARLINK-35772", "OBJECT_ID": "2025-288T", "EPOCH": "2025-12-19T06:02:25.830240", "MEAN_MOTION": 15.75253336, "ECCENTRICITY": 0.00080064, "INCLINATION": 43.0017, "RA_OF_ASC_NODE": 127.4603, "ARG_OF_PERICENTER": 208.8618, "MEAN_ANOMALY": 151.181, "EPHEMERIS_TYPE": 0, "CLASSIFICATION_TYPE": "U", "NORAD_CAT_ID": 66976, "ELEMENT_SET_NO": 999, "REV_AT_EPOCH": 287, "BSTAR": 0.001331003, "MEAN_MOTION_DOT": 0.00211472, "MEAN_MOTION_DDOT": 0}, "tle": {"line1": "1 66976U 25288T   25353.25168785  .00211472  00000+0  13310-2 0  9995", "line2": "2 66976  43.0017 127.4603 0008006 208.8618 151.1810 15.75253336  2875"}}, "geometry": {"type": "Point", "coordinates": [167.87678466116614, 32.51852328276547]}}, {"type": "Feature", "properties": {"norad_id": 66977, "name": "STARLINK-35770", "group": "last-30-days", "lat": 10.674261157701398, "lon": -67.23664667029361, "alt_km": 321.6785418238751, "timestamp": "2025-12-19T16:54:42.970137+00:00", "meta": {"OBJECT_NAME": "STARLINK-35770", "OBJECT_ID": "2025-288U", "EPOCH": "2025-12-19T00:00:02.000160", "MEAN_MOTION": 15.84996764, "ECCENTRICITY": 0.00016691, "INCLINATION": 43.0017, "RA_OF_ASC_NODE": 128.7645, "ARG_OF_PERICENTER": 281.1558, "MEAN_ANOMALY": 180.273, "EPHEMERIS_TYPE": 0, "CLASSIFICATION_TYPE": "U", "NORAD_CAT_ID": 66977, "ELEMENT_SET_NO": 999, "REV_AT_EPOCH": 283, "BSTAR": -0.00689093, "MEAN_MOTION_DOT": -0.01480411, "MEAN_MOTION_DDOT": 0}, "tle": {"line1": "1 66977U 25288U   25353.00002315 -.01480411  00000+0 -68909-2 0  9993", "line2": "2 66977  43.0017 128.7645 0001669 281.1558 180.2730 15.84996764  2830"}}, "geometry": {"type": "Point", "coordinates": [-67.23664667029361, 10.674261157701398]}}, {"type": "Feature", "properties": {"norad_id": 66978, "name": "STARLINK-35787", "group": "last-30-days", "lat": 6.27487586597566, "lon": -62.36018493302068, "alt_km": 322.2765188685071, "timestamp": "2025-12-19T16:54:42.970147+00:00", "meta": {"OBJECT_NAME": "STARLINK-35787", "OBJECT_ID": "2025-288V", "EPOCH": "2025-12-19T00:00:02.000160", "MEAN_MOTION": 15.85024092, "ECCENTRICITY": 0.00016754, "INCLINATION": 43.002, "RA_OF_ASC_NODE": 128.7479, "ARG_OF_PERICENTER": 283.7714, "MEAN_ANOMALY": 184.1739, "EPHEMERIS_TYPE": 0, "CLASSIFICATION_TYPE": "U", "NORAD_CAT_ID": 66978, "ELEMENT_SET_NO": 999, "REV_AT_EPOCH": 283, "BSTAR": -0.0070012601, "MEAN_MOTION_DOT": -0.01503113, "MEAN_MOTION_DDOT": 0}, "tle": {"line1": "1 66978U 25288V   25353.00002315 -.01503113  00000+0 -70013-2 0  9998", "line2": "2 66978  43.0020 128.7479 0001675 283.7714 184.1739 15.85024092  2838"}}, "geometry": {"type": "Point", "coordinates": [-62.36018493302068, 6.27487586597566]}}, {"type": "Feature", "properties": {"norad_id": 66979, "name": "STARLINK-36107", "group": "last-30-days", "lat": 4.5008223390517275, "lon": -60.43603128841539, "alt_km": 322.50995338387474, "timestamp": "2025-12-19T16:54:42.970157+00:00", "meta": {"OBJECT_NAME": "STARLINK-36107", "OBJECT_ID": "2025-288W", "EPOCH": "2025-12-19T00:00:02.000160", "MEAN_MOTION": 15.85004398, "ECCENTRICITY": 0.00016054, "INCLINATION": 43.0019, "RA_OF_ASC_NODE": 128.7411, "ARG_OF_PERICENTER": 282.9094, "MEAN_ANOMALY": 187.7165, "EPHEMERIS_TYPE": 0, "CLASSIFICATION_TYPE": "U", "NORAD_CAT_ID": 66979, "ELEMENT_SET_NO": 999, "REV_AT_EPOCH": 283, "BSTAR": -0.0070464694, "MEAN_MOTION_DOT": -0.01510336, "MEAN_MOTION_DDOT": 0}, "tle": {"line1": "1 66979U 25288W   25353.00002315 -.01510336  00000+0 -70465-2 0  9995", "line2": "2 66979  43.0019 128.7411 0001605 282.9094 187.7165 15.85004398  2837"}}, "geometry": {"type": "Point", "coordinates": [-60.43603128841539, 4.5008223390517275]}}, {"type": "Feature", "properties": {"norad_id": 66980, "name": "STARLINK-36086", "group": "last-30-days", "lat": 2.9425668625070385, "lon": -58.75850818670047, "alt_km": 322.6540530465227, "timestamp": "2025-12-19T16:54:42.970169+00:00", "meta": {"OBJECT_NAME": "STARLINK-36086", "OBJECT_ID": "2025-288X", "EPOCH": "2025-12-19T00:00:02.000160", "MEAN_MOTION": 15.85010159, "ECCENTRICITY": 0.00015433, "INCLINATION": 43.0019, "RA_OF_ASC_NODE": 128.7351, "ARG_OF_PERICENTER": 281.5171, "MEAN_ANOMALY": 191.4101, "EPHEMERIS_TYPE": 0, "CLASSIFICATION_TYPE": "U", "NORAD_CAT_ID": 66980, "ELEMENT_SET_NO": 999, "REV_AT_EPOCH": 283, "BSTAR": -0.0071067803, "MEAN_MOTION_DOT": -0.01522052, "MEAN_MOTION_DDOT": 0}, "tle": {"line1": "1 66980U 25288X   25353.00002315 -.01522052  00000+0 -71068-2 0  9995", "line2": "2 66980  43.0019 128.7351 0001543 281.5171 191.4101 15.85010159  2838"}}, "geometry": {"type": "Point", "coordinates": [-58.75850818670047, 2.9425668625070385]}}, {"type": "Feature", "properties": {"norad_id": 66981, "name": "STARLINK-36142", "group": "last-30-days", "lat": -0.4601192851047014, "lon": -55.116134494175974, "alt_km": 312.70916707241577, "timestamp": "2025-12-19T16:54:42.970180+00:00", "meta": {"OBJECT_NAME": "STARLINK-36142", "OBJECT_ID": "2025-288Y", "EPOCH": "2025-12-19T07:04:51.911328", "MEAN_MOTION": 15.85100065, "ECCENTRICITY": 0.00071111, "INCLINATION": 43.002, "RA_OF_ASC_NODE": 126.9138, "ARG_OF_PERICENTER": 243.4048, "MEAN_ANOMALY": 116.6097, "EPHEMERIS_TYPE": 0, "CLASSIFICATION_TYPE": "U", "NORAD_CAT_ID": 66981, "ELEMENT_SET_NO": 999, "REV_AT_EPOCH": 288, "BSTAR": 0.0022152731, "MEAN_MOTION_DOT": 0.00577099, "MEAN_MOTION_DDOT": 0}, "tle": {"line1": "1 66981U 25288Y   25353.29504527  .00577099  00000+0  22153-2 0  9998", "line2": "2 66981  43.0020 126.9138 0007111 243.4048 116.6097 15.85100065  2885"}}, "geometry": {"type": "Point", "coordinates": [-55.116134494175974, -0.4601192851047014]}}, {"type": "Feature", "properties": {"norad_id": 66982, "name": "STARLINK-36113", "group": "last-30-days", "lat": -1.9880127266256777, "lon": -53.481527604730466, "alt_km": 313.3297303851259, "timestamp": "2025-12-19T16:54:42.970195+00:00", "meta": {"OBJECT_NAME": "STARLINK-36113", "OBJECT_ID": "2025-288Z", "EPOCH": "2025-12-19T07:04:18.749280", "MEAN_MOTION": 15.85106335, "ECCENTRICITY": 0.00054509, "INCLINATION": 43.0015, "RA_OF_ASC_NODE": 126.9099, "ARG_OF_PERICENTER": 245.8954, "MEAN_ANOMALY": 114.1349, "EPHEMERIS_TYPE": 0, "CLASSIFICATION_TYPE": "U", "NORAD_CAT_ID": 66982, "ELEMENT_SET_NO": 999, "REV_AT_EPOCH": 288, "BSTAR": 0.0022556951, "MEAN_MOTION_DOT": 0.00588297, "MEAN_MOTION_DDOT": 0}, "tle": {"line1": "1 66982U 25288Z   25353.29466145  .00588297  00000+0  22557-2 0  9992", "line2": "2 66982  43.0015 126.9099 0005450 245.8954 114.1349 15.85106335  2881"}}, "geometry": {"type": "Point", "coordinates": [-53.481527604730466, -1.9880127266256777]}}, {"type": "Feature", "properties": {"norad_id": 66983, "name": "STARLINK-36145", "group": "last-30-days", "lat": -3.121736334863143, "lon": -52.26374292646425, "alt_km": 323.33585317533743, "timestamp": "2025-12-19T16:54:42.970206+00:00", "meta": {"OBJECT_NAME": "STARLINK-36145", "OBJECT_ID": "2025-288AA", "EPOCH": "2025-12-19T00:00:02.000160", "MEAN_MOTION": 15.85034974, "ECCENTRICITY": 0.00017264, "INCLINATION": 43.0016, "RA_OF_ASC_NODE": 128.7127, "ARG_OF_PERICENTER": 281.8641, "MEAN_ANOMALY": 199.9644, "EPHEMERIS_TYPE": 0, "CLASSIFICATION_TYPE": "U", "NORAD_CAT_ID": 66983, "ELEMENT_SET_NO": 999, "REV_AT_EPOCH": 283, "BSTAR": -0.0072517491, "MEAN_MOTION_DOT": -0.01551127, "MEAN_MOTION_DDOT": 0}, "tle": {"line1": "1 66983U 25288AA  25353.00002315 -.01551127  00000+0 -72517-2 0  9993", "line2": "2 66983  43.0016 128.7127 0001726 281.8641 199.9644 15.85034974  2833"}}, "geometry": {"type": "Point", "coordinates": [-52.26374292646425, -3.121736334863143]}}, {"type": "Feature", "properties": {"norad_id": 66984, "name": "STARLINK-35591", "group": "last-30-days", "lat": -3.3626084799206852, "lon": -52.00402043668837, "alt_km": 312.49598595060615, "timestamp": "2025-12-19T16:54:42.970216+00:00", "meta": {"OBJECT_NAME": "STARLINK-35591", "OBJECT_ID": "2025-288AB", "EPOCH": "2025-12-19T07:03:43.638048", "MEAN_MOTION": 15.84962913, "ECCENTRICITY": 0.00069001, "INCLINATION": 43.0018, "RA_OF_ASC_NODE": 126.9089, "ARG_OF_PERICENTER": 227.111, "MEAN_ANOMALY": 132.9184, "EPHEMERIS_TYPE": 0, "CLASSIFICATION_TYPE": "U", "NORAD_CAT_ID": 66984, "ELEMENT_SET_NO": 999, "REV_AT_EPOCH": 288, "BSTAR": 0.0016622321, "MEAN_MOTION_DOT": 0.00422483, "MEAN_MOTION_DDOT": 0}, "tle": {"line1": "1 66984U 25288AB  25353.29425507  .00422483  00000+0  16622-2 0  9991", "line2": "2 66984  43.0018 126.9089 0006900 227.1110 132.9184 15.84962913  2889"}}, "geometry": {"type": "Point", "coordinates": [-52.00402043668837, -3.3626084799206852]}}]}